[{"OBJECT_NAME":"TIANMU-1 07","OBJECT_ID":"2023-101A","EPOCH":"2026-03-06T13:47:20.454720","MEAN_MOTION":15.29118809,"ECCENTRICITY":0.00046097,"INCLINATION":97.2728,"RA_OF_ASC_NODE":118.5929,"ARG_OF_PERICENTER":142.4105,"MEAN_ANOMALY":217.7458,"EPHEMERIS_TYPE":0,"CLASSIFICATION_TYPE":"U","NORAD_CAT_ID":57399,"ELEMENT_SET_NO":999,"REV_AT_EPOCH":14596,"BSTAR":0.00029794732,"MEAN_MOTION_DOT":8.352e-5,"MEAN_MOTION_DDOT":0},{"OBJECT_NAME":"STARLINK-30535","OBJECT_ID":"2023-153L","EPOCH":"2026-03-09T01:20:09.280608","MEAN_MOTION":15.26739724,"ECCENTRICITY":0.00018594,"INCLINATION":42.9996,"RA_OF_ASC_NODE":70.2617,"ARG_OF_PERICENTER":273.2776,"MEAN_ANOMALY":86.7863,"EPHEMERIS_TYPE":0,"CLASSIFICATION_TYPE":"U","NORAD_CAT_ID":58001,"ELEMENT_SET_NO":999,"REV_AT_EPOCH":13480,"BSTAR":-3.906097e-6,"MEAN_MOTION_DOT":-3.65e-6,"MEAN_MOTION_DDOT":0}]
